"name","zipcode","addresse","LocName","latitude","longitude","iConf","iLvl"
"稲荷神社【五十稲荷神社】","101-0052","東京都千代田区神田小川町3-9","東京都/千代田区/神田小川町/三丁目/９番","139.76190","35.69411","5","7"
"稲荷神社【亀住稲荷神社】","101-0021","東京都千代田区外神田5-4-7","東京都/千代田区/外神田/五丁目/４番","139.77281","35.70456","5","7"
"太田姫稲荷神社","101-0062","東京都千代田区神田駿河台1-2-3","東京都/千代田区/神田駿河台/一丁目/２番","139.76303","35.69655","5","7"
"御宿稲荷神社","101-0047","東京都千代田区内神田1-6-8","東京都/千代田区/内神田/一丁目/６番","139.76653","35.68983","5","7"
"神田神社【神田明神】","101-0021","東京都千代田区外神田2-16-2","東京都/千代田区/外神田/二丁目/１６番","139.76772","35.70213","5","7"
"佐竹稲荷神社","101-0047","東京都千代田区内神田3-10-1","東京都/千代田区/内神田/三丁目/１０番","139.76926","35.69121","5","7"
"真徳稲荷神社","101-0048","東京都千代田区神田司町2-4-5","東京都/千代田区/神田司町/二丁目/４番","139.76773","35.69337","5","7"
"築土神社","102-0073","東京都千代田区九段北1-14-21","東京都/千代田区/九段北/一丁目/１４番","139.74939","35.69582","5","7"
"東京大神宮","102-0071","東京都千代田区富士見2-4-1","東京都/千代田区/富士見/二丁目/４番","139.74631","35.69993","5","7"
"日枝神社【山王さま】","100-0014","東京都千代田区永田町2-10-5","東京都/千代田区/永田町/二丁目/１０番","139.73984","35.67485","5","7"
"平河天満宮","102-0093","東京都千代田区平河町1-7-5","東京都/千代田区/平河町/一丁目/７番","139.74088","35.68245","5","7"
"三崎稲荷神社","101-0061","東京都千代田区三崎町2-9-12","東京都/千代田区/神田三崎町/二丁目/９番","139.75485","35.70131","5","7"
"柳森神社【方除いなり】","101-0041","東京都千代田区神田須田町2-25-1","東京都/千代田区/神田須田町/二丁目/２５番地","139.77400","35.69680","5","7"
"朝日稲荷神社","103-0026","東京都中央区銀座3-8-10","東京都/中央区/銀座/三丁目/８番","139.76749","35.67171","5","7"
"池洲稲荷神社","103-0012","東京都中央区日本橋堀留町2-4-10","東京都/中央区/日本橋堀留町/二丁目/４番","139.77997","35.68945","5","7"
"稲荷神社【富沢稲荷神社】","103-0006","東京都中央区日本橋富沢町7-18","東京都/中央区/日本橋富沢町/７番","139.78297","35.68854","5","7"
"今村幸稲荷神社","104-0032","東京都中央区八丁堀3-24-11","東京都/中央区/八丁堀/三丁目/２４番","139.77820","35.67503","5","7"
"永久稲荷神社","103-0015","東京都中央区日本橋箱崎町22-11","東京都/中央区/日本橋箱崎町/２２番","139.78584","35.68094","5","7"
"於岩稲荷田宮神社","104-0033","東京都中央区新川2-25-11","東京都/中央区/新川/二丁目/２５番","139.78310","35.67479","5","7"
"大原稲荷神社","103-0026","東京都中央区日本橋兜町11-3","東京都/中央区/日本橋兜町/１１番","139.77644","35.68020","5","7"
"笠間稲荷神社【紋三郎さま】","103-0007","東京都中央区日本橋浜町2-11-6","東京都/中央区/日本橋浜町/二丁目/１１番","139.78517","35.68801","5","7"
"小網神社","103-0016","東京都中央区日本橋小網町16-23","東京都/中央区/日本橋小網町/１６番","139.78033","35.68459","5","7"
"三光稲荷神社","103-0012","東京都中央区日本橋堀留町2-1-13","東京都/中央区/日本橋堀留町/二丁目/１番","139.78127","35.68794","5","7"
"白旗稲荷神社","103-0021","東京都中央区日本橋本石町4-5-16","東京都/中央区/日本橋本石町/四丁目/５番","139.77084","35.68900","5","7"
"水天宮","103-0014","東京都中央区日本橋蠣殻町2-4-1","東京都/中央区/日本橋蛎殻町/二丁目/４番","139.78505","35.68357","5","7"
"末廣神社","103-0013","東京都中央区日本橋人形町2-25-20","東京都/中央区/日本橋人形町/二丁目/２５番","139.78410","35.68687","5","7"
"椙森神社","103-0012","東京都中央区日本橋堀留町1-10-2","東京都/中央区/日本橋堀留町/一丁目/１０番","139.77972","35.68878","5","7"
"住吉神社","104-0051","東京都中央区佃1-1-14","東京都/中央区/佃/一丁目/１番","139.78304","35.66818","5","7"
"宝田神社","103-0023","東京都中央区日本橋本町3-10","東京都/中央区/日本橋本町/三丁目/１０番","139.77710","35.68934","5","7"
"鐵砲洲稲荷神社","104-0043","東京都中央区湊1-6-7","東京都/中央区/湊/一丁目/６番","139.77971","35.67253","5","7"
"天祖神社","104-0032","東京都中央区八丁堀3-6-6","東京都/中央区/八丁堀/三丁目/６番","139.77448","35.67620","5","7"
"常盤稲荷神社","103-0023","東京都中央区日本橋本町1-8-11","東京都/中央区/日本橋本町/一丁目/８番","139.77774","35.68534","5","7"
"豊岩稲荷神社","104-0061","東京都中央区銀座7-8-14","東京都/中央区/銀座/七丁目/８番","139.76245","35.66914","5","7"
"鳥居稲荷神社","103-0026","東京都中央区日本橋兜町20-2","東京都/中央区/日本橋兜町/２０番","139.77650","35.67857","5","7"
"波除稲荷神社","104-0045","東京都中央区築地6-20-37","東京都/中央区/築地/六丁目/２０番","139.77254","35.66393","5","7"
"浜町神社","103-0007","東京都中央区日本橋浜町3-3-3","東京都/中央区/日本橋浜町/三丁目/３番","139.78802","35.68486","5","7"
"福徳神社","103-0022","東京都中央区日本橋室町2-4-14","東京都/中央区/日本橋室町/二丁目/４番","139.77390","35.68730","5","7"
"松島神社【おとりさま】","103-0013","東京都中央区日本橋人形町2-15-2","東京都/中央区/日本橋人形町/二丁目/１５番","139.78561","35.68482","5","7"
"明徳稲荷神社","103-0025","東京都中央区日本橋茅場町1-6-3","東京都/中央区/日本橋茅場町/一丁目/６番","139.77882","35.68098","5","7"
"稲荷神社【腰掛稲荷】","112-0015","東京都文京区目白台3-26-1","東京都/文京区/目白台/三丁目/２６番","139.72484","35.71915","5","7"
"稲荷神社【大鳥神社・おとり様】","112-0011","東京都文京区千石4-25-15","東京都/文京区/千石/四丁目/２５番","139.73988","35.73013","5","7"
"稲荷神社【満足稲荷】","113-0022","東京都文京区千駄木5-2-8","東京都/文京区/千駄木/五丁目/２番","139.76041","35.72545","5","7"
"稲荷神社【出世稲荷】","113-0033","東京都文京区本郷1-33-17","東京都/文京区/本郷/一丁目/３３番","139.75481","35.70633","5","7"
"今宮神社【今宮五社】","112-0013","東京都文京区音羽1-4-4","東京都/文京区/音羽/一丁目/４番","139.73129","35.71246","5","7"
"北野神社【牛天神】","112-0003","東京都文京区春日1-5-2","東京都/文京区/春日/一丁目/５番","139.74773","35.70794","5","7"
"小石川大神宮","112-0002","東京都文京区小石川2-5-7","東京都/文京区/小石川/二丁目/５番","139.74995","35.70934","5","7"
"幸神社","112-0014","東京都文京区関口2-6-1","東京都/文京区/関口/二丁目/６番","139.72636","35.71141","5","7"
"小日向神社【八幡さま】","112-0006","東京都文京区小日向2-16-6","東京都/文京区/小日向/二丁目/１６番","139.73488","35.71065","5","7"
"御霊社【畑の稲荷】","113-0034","東京都文京区湯島2-11-15","東京都/文京区/湯島/二丁目/１１番","139.76462","35.70462","5","7"
"櫻木神社","113-0033","東京都文京区本郷4-3-1","東京都/文京区/本郷/四丁目/３番","139.75908","35.70760","5","7"
"正八幡神社【目白八幡宮】","112-0014","東京都文京区関口2-3-21","東京都/文京区/関口/二丁目/３番","139.72968","35.71146","5","7"
"水神社","112-0015","東京都文京区目白台1-1-9","東京都/文京区/目白台/一丁目/１番","139.72264","35.71272","5","7"
"諏訪神社","112-0004","東京都文京区後楽2-18-18","東京都/文京区/後楽/二丁目/１８番","139.74516","35.70681","5","7"
"妻恋神社","113-0034","東京都文京区湯島3-2-6","東京都/文京区/湯島/三丁目/２番","139.76759","35.70361","5","7"
"天祖神社【神明宮】","113-0021","東京都文京区本駒込3-40-1","東京都/文京区/本駒込/三丁目/４０番","139.75409","35.73048","5","7"
"根津神社【根津権現】","113-0031","東京都文京区根津1-28-9","東京都/文京区/根津/一丁目/２８番","139.76077","35.72038","5","7"
"白山神社【はくさんさま】","112-0001","東京都文京区白山5-31-26","東京都/文京区/白山/五丁目/３１番","139.75081","35.72219","5","7"
"簸川神社【ひかわさま】","112-0011","東京都文京区千石2-10-10","東京都/文京区/千石/二丁目/１０番","139.74060","35.72193","5","7"
"吹上稲荷神社","112-0012","東京都文京区大塚5-21-11","東京都/文京区/大塚/五丁目/２１番","139.72943","35.72254","5","7"
"富士神社【駒込富士】","〒 113-0021　東京都文京区本駒込5-7-20","東京都文京区本駒込5-7-20","東京都/文京区/本駒込/五丁目/７番","139.75134","35.73107","5","7"
"三河稲荷神社【三九様】","113-0033","東京都文京区本郷2-20-5","東京都/文京区/本郷/二丁目/２０番","139.75923","35.70486","5","7"
"湯島天満宮【湯島天神】","113-0034","東京都文京区湯島3-30-1","東京都/文京区/湯島/三丁目/３０番","139.76791","35.70772","5","7"
"秋葉神社","111-0036","東京都台東区松が谷3-10-7","東京都/台東区/松が谷/三丁目/１０番","139.78586","35.71646","5","7"
"浅草神社【三社様】","111-0032","東京都台東区浅草2-3-1","東京都/台東区/浅草/二丁目/３番","139.79549","35.71363","5","7"
"熱田神社","111-0024","東京都台東区今戸2-13-6","東京都/台東区/今戸/二丁目/１３番","139.80244","35.72120","5","7"
"石塚稲荷神社【石塚稲荷】","111-0052","東京都台東区柳橋1-1-15","東京都/台東区/柳橋/一丁目/１番","139.78833","35.69599","5","7"
"銀杏岡八幡神社【銀杏八幡さま】","111-0053","東京都台東区浅草橋1-29-11","東京都/台東区/浅草橋/一丁目/２９番","139.78571","35.69800","5","7"
"稲荷神社【千束稲荷神社】","110-0012","東京都台東区竜泉2-19-3","東京都/台東区/竜泉/二丁目/１９番","139.79050","35.72719","5","7"
"稲荷神社【揖取稲荷神社】","111-0051","東京都台東区蔵前2-2-11","東京都/台東区/蔵前/二丁目/２番","139.78967","35.70190","5","7"
"稲荷神社【石稲荷】","110-0003","東京都台東区根岸4-16-17","東京都/台東区/根岸/四丁目/１６番","139.78387","35.72535","5","7"
"今戸神社","111-0024","東京都台東区今戸1-5-22","東京都/台東区/今戸/一丁目/５番","139.80344","35.71898","5","7"
"鷲神社【おとりさま】","111-0031","東京都台東区千束3-18-7","東京都/台東区/千束/三丁目/１８番","139.79161","35.72255","5","7"
"小野照崎神社","110-0004","東京都台東区下谷2-13-14","東京都/台東区/下谷/二丁目/１３番","139.78311","35.72198","5","7"
"感應稲荷神社","111-0035","東京都台東区西浅草3-16-13","東京都/台東区/西浅草/三丁目/１６番","139.79224","35.71473","5","7"
"粂森稲荷神社","111-0053","東京都台東区浅草橋3-16-8","東京都/台東区/浅草橋/三丁目/１６番","139.78665","35.70067","5","7"
"藏前神社【東石清水宮】","111-0051","東京都台東区蔵前3-14-11","東京都/台東区/蔵前/三丁目/１４番","139.79173","35.70484","5","7"
"黒船稲荷神社","111-0042","東京都台東区寿4-3-1","東京都/台東区/寿/四丁目/３番","139.79318","35.70822","5","7"
"合力稲荷神社","111-0032","東京都台東区浅草6-42-8","東京都/台東区/浅草/六丁目/４２番","139.80049","35.71977","5","7"
"五條天神社【五條天神】","110-0007","東京都台東区上野公園4-17","東京都/台東区/上野公園/４番","139.77174","35.71470","5","7"
"金刀比羅神社【 生駒金比羅宮】","110-0016","東京都台東区台東2-24-1","東京都/台東区/台東/二丁目/２４番","139.77838","35.70345","5","7"
"境稲荷神社","110-0008","東京都台東区池之端1-6-13","東京都/台東区/池之端/一丁目/６番","139.76781","35.71196","5","7"
"榊神社【第六天榊神社】","111-0051","東京都台東区蔵前1-4-3","東京都/台東区/蔵前/一丁目/４番","139.78929","35.70015","5","7"
"下谷神社【下谷稲荷】","110-0015","東京都台東区東上野3-29-8","東京都/台東区/東上野/三丁目/２９番","139.78128","35.71078","5","7"
"篠塚稲荷神社【篠塚稲荷】","111-0052","東京都台東区柳橋1-5-1","東京都/台東区/柳橋/一丁目/５番","139.78659","35.69634","5","7"
"須賀神社【団子天王】","111-0053","東京都台東区浅草橋2-29-16","東京都/台東区/浅草橋/二丁目/２９番","139.78720","35.69928","5","7"
"諏訪神社【おすわさま】","111-0043","東京都台東区駒形1-4-15","東京都/台東区/駒形/一丁目/４番","139.79451","35.70700","5","7"
"浅間神社【お富士様】","111-0032","東京都台東区浅草5-3-2","東京都/台東区/浅草/五丁目/３番","139.79849","35.71930","5","7"
"玉姫稲荷神社【玉姫稲荷】","111-0022","東京都台東区清川2-13-20","東京都/台東区/清川/二丁目/１３番","139.80229","35.72715","5","7"
"東照宮【上野権現様】","110-0007","東京都台東区上野公園9-88","東京都/台東区/上野公園/９番","139.77049","35.71697","5","7"
"鳥越神社【鳥越明神】","111-0054","東京都台東区鳥越2-4-1","東京都/台東区/鳥越/二丁目/４番","139.78578","35.70196","5","7"
"七倉稲荷神社","110-0008","東京都台東区池之端2-5-47","東京都/台東区/池之端/二丁目/５番","139.76566","35.71630","5","7"
"八幡神社","111-0035","東京都台東区西浅草2-14-5","東京都/台東区/西浅草/二丁目/１４番","139.79182","35.71302","5","7"
"花園稲荷神社【穴稲荷・忍岡稲荷】","110-0007","東京都台東区上野公園4-17","東京都/台東区/上野公園/４番","139.77174","35.71470","5","7"
"日枝神社","111-0035","東京都台東区西浅草3-8-1","東京都/台東区/西浅草/三丁目/８番","139.78931","35.71509","5","7"
"宝珠稲荷神社","111-0022","東京都台東区清川2-15-1","東京都/台東区/清川/二丁目/１５番","139.80069","35.72699","5","7"
"本社 三島神社","111-0042","東京都台東区寿4-9-1","東京都/台東区/寿/四丁目/９番","139.79231","35.70887","5","7"
"三島神社","110-0004","東京都台東区下谷3-7-5","東京都/台東区/下谷/三丁目/７番","139.78592","35.72467","5","7"
"元三島神社【三島さま】","110-0003","東京都台東区根岸1-7-11","東京都/台東区/根岸/一丁目/７番","139.77818","35.72234","5","7"
"矢先稲荷神社","111-0036","東京都台東区松が谷2-14-1","東京都/台東区/松が谷/二丁目/１４番","139.78752","35.71365","5","7"
"吉原神社","111-0031","東京都台東区千束3-20-2","東京都/台東区/千束/三丁目/２０番","139.79272","35.72279","5","7"
"朝日神社","106-0032","東京都港区六本木6-7-14","東京都/港区/六本木/六丁目/７番","139.73235","35.66200","5","7"
"愛宕神社","105-0002","東京都港区愛宕1-5-3","東京都/港区/愛宕/一丁目/５番","139.74866","35.66482","5","7"
"稲荷神社【亀塚稲荷神社】","108-0073","東京都港区三田4-14-18","東京都/港区/三田/四丁目/１４番","139.74193","35.64610","5","7"
"稲荷神社【讃岐小白稲荷神社】","105-0013","東京都港区浜松町2-9-8","東京都/港区/浜松町/二丁目/９番","139.75627","35.65397","5","7"
"稲荷神社【古寿老稲荷神社】","108-0074","東京都港区高輪1-18-11","東京都/港区/高輪/一丁目/１８番","139.73312","35.63979","5","7"
"稲荷神社","108-0074","東京都港区高輪2-15-10","東京都/港区/高輪/二丁目/１５番","139.73836","35.63694","5","7"
"稲荷神社【船光稲荷神社】","107-0062","東京都港区南青山3-4-11","東京都/港区/南青山/三丁目/４番","139.71725","35.66705","5","7"
"春日神社","108-0073","東京都港区三田2-13-9","東京都/港区/三田/二丁目/１３番","139.74452","35.64962","5","7"
"烏森神社【烏森稲荷】","105-0004","東京都港区新橋2-15-5","東京都/港区/新橋/二丁目/１５番","139.75613","35.66644","5","7"
"熊野神社","106-0041","東京都港区麻布台2-2-14","東京都/港区/麻布台/二丁目/２番","139.74304","35.65864","5","7"
"古地老稲荷神社","108-0071","東京都港区白金台1-1-7","東京都/港区/白金台/一丁目/１番","139.72981","35.63879","5","7"
"金刀比羅宮【こんぴらさん】","105-0001","東京都港区虎ノ門1-2-7","東京都/港区/虎ノ門/一丁目/２番","139.74838","35.66968","5","7"
"幸稲荷神社","105-0011","東京都港区芝公園3-5-27","東京都/港区/芝公園/三丁目/５番","139.74602","35.66017","5","7"
"櫻田神社","106-0031","東京都港区西麻布3-2-17","東京都/港区/西麻布/三丁目/２番","139.72729","35.65970","5","7"
"鹽竈神社","105-0004","東京都港区新橋5-19-7","東京都/港区/新橋/五丁目/１９番","139.75462","35.66319","5","7"
"芝大神宮【芝神明】","105-0012","東京都港区芝大門1-12-7","東京都/港区/芝大門/一丁目/１２番","139.75299","35.65773","5","7"
"十番稲荷神社","106-0045","東京都港区麻布十番1-4-6","東京都/港区/麻布十番/一丁目/４番","139.73485","35.65704","5","7"
"神明宮【元神明】","108-0073","東京都港区三田1-4-74","東京都/港区/三田/一丁目/４番","139.74274","35.65316","5","7"
"末広稲荷神社","107-0052","東京都港区赤坂4-13-17","東京都/港区/赤坂/四丁目/１３番","139.73225","35.67292","5","7"
"高輪神社","108-0074","東京都港区高輪2-14-18","東京都/港区/高輪/二丁目/１４番","139.73799","35.63558","5","7"
"高山稲荷神社","108-0074","東京都港区高輪4-10-23","東京都/港区/高輪/四丁目/１０番","139.73698","35.62857","5","7"
"天祖神社【龍土神明宮】","106-0032","東京都港区六本木7-7-7","東京都/港区/六本木/七丁目/７番","139.72882","35.66499","5","7"
"東照宮","105-0011","東京都港区芝公園4-8-10","東京都/港区/芝公園/四丁目/８番","139.74625","35.65598","5","7"
"乃木神社","107-0052","東京都港区赤坂8-11-27","東京都/港区/赤坂/八丁目/１１番","139.72795","35.66887","5","7"
"八幡神社【西久保八幡様】","105-0001","東京都港区虎ノ門5-10-14","東京都/港区/虎ノ門/五丁目/１０番","139.74303","35.66167","5","7"
"氷川神社【白金氷川神社】","108-0072","東京都港区白金2-1-7","東京都/港区/白金/二丁目/１番","139.73108","35.64287","5","7"
"氷川神社【麻布氷川神社】","106-0046","東京都港区元麻布1-4-23","東京都/港区/元麻布/一丁目/４番","139.73123","35.65345","5","7"
"氷川神社【赤坂氷川神社】","107-0052","東京都港区赤坂6-10-12","東京都/港区/赤坂/六丁目/１０番","139.73557","35.66868","5","7"
"久国神社","106-0032","東京都港区六本木2-1-16","東京都/港区/六本木/二丁目/１番","139.73712","35.66713","5","7"
"日比谷神社【鯖稲荷】","105-0021","東京都港区東新橋2-1-1","東京都/港区/東新橋/二丁目/１番","139.75827","35.66348","5","7"
"廣尾稲荷神社","106-0047","東京都港区南麻布4-5-61","東京都/港区/南麻布/四丁目/５番","139.72487","35.65017","5","7"
"葺城稲荷神社","105-0001","東京都港区虎ノ門4-1-3","東京都/港区/虎ノ門/四丁目/１番","139.74454","35.66541","5","7"
"丸山神社","108-0074","東京都港区高輪1-21-10","東京都/港区/高輪/一丁目/２１番","139.73401","35.63837","5","7"
"御田八幡神社【八幡さま】","108-0073","東京都港区三田3-7-16","東京都/港区/三田/三丁目/７番","139.74164","35.64293","5","7"
"御穂神社","108-0014","東京都港区芝4-15-1","東京都/港区/芝/四丁目/１５番","139.74942","35.64653","5","7"
"柳神社","105-0014","東京都港区芝3-12-19","東京都/港区/芝/三丁目/１２番","139.74614","35.65276","5","7"
"青山熊野神社","150-0001","東京都渋谷区神宮前2-2-22","東京都/渋谷区/神宮前/二丁目/２番","139.71397","35.67265","5","7"
"稲荷神社【伊藤稲荷神社】","150-0011","東京都渋谷区東3-14-20","東京都/渋谷区/東/三丁目/１４番","139.70973","35.65112","5","7"
"恵比寿神社","〒 150-0021　東京都渋谷区恵比寿西1-11-1","東京都渋谷区恵比寿西1-11-1","東京都/渋谷区/恵比寿西/一丁目/１１番","139.70786","35.64717","5","7"
"穏田神社","150-0001","東京都渋谷区神宮前5-26-6","東京都/渋谷区/神宮前/五丁目/２６番","139.70427","35.66494","5","7"
"北谷稲荷神社","150-0041","東京都渋谷区神南1-4-1","東京都/渋谷区/神南/一丁目/４番","139.70041","35.66525","5","7"
"金王八幡宮","150-0002","東京都渋谷区渋谷3-5-12","東京都/渋谷区/渋谷/三丁目/５番","139.70657","35.65767","5","7"
"猿楽神社","150-0033","東京都渋谷区猿楽町29-9","東京都/渋谷区/猿楽町/２９番","139.70045","35.64793","5","7"
"千代田稲荷神社","150-0043","東京都渋谷区道玄坂2-20-8","東京都/渋谷区/道玄坂/二丁目/２０番","139.69629","35.65950","5","7"
"東郷神社","150-0001","東京都渋谷区神宮前1-5-3","東京都/渋谷区/神宮前/一丁目/５番","139.70624","35.67157","5","7"
"豊栄稲荷神社","150-0002","東京都渋谷区渋谷3-4-7","東京都/渋谷区/渋谷/三丁目/４番","139.70616","35.65713","5","7"
"八幡神社【鳩森八幡神社】","151-0051","東京都渋谷区千駄ケ谷1-1-24","東京都/渋谷区/千駄ケ谷/一丁目/１番","139.70930","35.67785","5","7"
"氷川神社【渋谷氷川神社】","150-0011","東京都渋谷区東2-5-6","東京都/渋谷区/東/二丁目/５番","139.71053","35.65500","5","7"
"氷川神社【幡ヶ谷氷川神社】","151-0071","東京都渋谷区本町5-16-2","東京都/渋谷区/本町/五丁目/１６番","139.67607","35.68533","5","7"
"平田神社","151-0053","東京都渋谷区代々木3-8-10","東京都/渋谷区/代々木/三丁目/８番","139.69601","35.68310","5","7"
"御嶽神社【御酉様】","150-0002","東京都渋谷区渋谷1-12-16","東京都/渋谷区/渋谷/一丁目/１２番","139.70383","35.66023","5","7"
"明治神宮","151-8557","東京都渋谷区代々木神園町1-1","東京都/渋谷区/代々木神園町/１番","139.69974","35.67558","5","7"
"代々木八幡宮","151-0053","東京都渋谷区代々木5-1-1","東京都/渋谷区/代々木/五丁目/１番","139.68863","35.67174","5","7"
"北野神社【松が丘天神】","165-0024","東京都中野区松が丘2-27-1","東京都/中野区/松が丘/二丁目/２７番","139.67097","35.72270","5","7"
"稲荷神社【藤神稲荷神社】","164-0013","東京都中野区弥生町2-19-4","東京都/中野区/弥生町/二丁目/１９番","139.67491","35.69114","5","7"
"北野神社【新井天神】","165-0026","東京都中野区新井4-14-3","東京都/中野区/新井/四丁目/１４番","139.66647","35.71511","5","7"
"須賀稲荷神社","165-0023","東京都中野区江原町1-44-2","東京都/中野区/江原町/一丁目/４４番","139.67247","35.73045","5","7"
"多田神社【権現様】","164-0014","東京都中野区南台3-43-1","東京都/中野区/南台/三丁目/４３番","139.66376","35.68353","5","7"
"天神社【第六天神社】","164-0003","東京都中野区東中野1-15-9","東京都/中野区/東中野/一丁目/１５番","139.68568","35.70262","5","7"
"八幡神社【鷺宮はちまんさま】","165-0035","東京都中野区白鷺1-31-10","東京都/中野区/白鷺/一丁目/３１番","139.63889","35.72150","5","7"
"八幡神社【やはた神社】","165-0034","東京都中野区大和町2-30-3","東京都/中野区/大和町/二丁目/３０番","139.65080","35.71396","5","7"
"氷川神社【おひかわさま】","164-0003","東京都中野区東中野1-11-1","東京都/中野区/東中野/一丁目/１１番","139.68274","35.70225","5","7"
"氷川神社【沼袋氷川神社】","165-0025","東京都中野区沼袋1-31-4","東京都/中野区/沼袋/一丁目/３１番","139.66580","35.71936","5","7"
"氷川神社【神明氷川神社】","164-0013","東京都中野区弥生町4-27-30","東京都/中野区/弥生町/四丁目/２７番","139.67006","35.68719","5","7"
"氷川神社【本郷氷川神社】","164-0012","東京都中野区本町4-10-3","東京都/中野区/本町/四丁目/１０番","139.67346","35.69424","5","7"
"氷川神社【江古田おひかわさま】","165-0022","東京都中野区江古田3-13-6","東京都/中野区/江古田/三丁目/１３番","139.66721","35.72781","5","7"
"氷川神社【上高田おひかわさま】","164-0002","東京都中野区上高田4-42-1","東京都/中野区/上高田/四丁目/４２番","139.67653","35.71474","5","7"
"井草八幡宮","167-0041","東京都杉並区善福寺1-33-1","東京都/杉並区/善福寺/一丁目/３３番","139.59550","35.71594","5","7"
"稲荷神社【永福稲荷】","168-0064","東京都杉並区永福1-24-6","東京都/杉並区/永福/一丁目/２４番","139.64305","35.67249","5","7"
"大宮八幡宮","168-8570","東京都杉並区大宮2-3-1","東京都/杉並区/大宮/二丁目/３番","139.63992","35.68252","5","7"
"熊野神社","168-0063","東京都杉並区和泉3-21-29","東京都/杉並区/和泉/三丁目/２１番","139.64780","35.67652","5","7"
"熊野神社","167-0032","東京都杉並区天沼2-40-2","東京都/杉並区/天沼/二丁目/４０番","139.62677","35.70879","5","7"
"神明宮","166-0001","東京都杉並区阿佐谷北1-25-5","東京都/杉並区/阿佐谷北/一丁目/２５番","139.63695","35.70743","5","7"
"天祖神社","166-0003","東京都杉並区高円寺南1-16-19","東京都/杉並区/高円寺南/一丁目/１６番","139.65697","35.70014","5","7"
"白山神社【荻窪白山】","167-0043","東京都杉並区上荻1-21-7","東京都/杉並区/上荻/一丁目/２１番","139.61633","35.70549","5","7"
"八幡神社【荻窪八幡】","167-0043","東京都杉並区上荻4-19-2","東京都/杉並区/上荻/四丁目/１９番","139.60645","35.71082","5","7"
"八幡神社","168-0073","東京都杉並区下高井戸4-39-3","東京都/杉並区/下高井戸/四丁目/３９番","139.63016","35.67535","5","7"
"八幡神社【天沼八幡】","167-0032","東京都杉並区天沼2-18-5","東京都/杉並区/天沼/二丁目/１８番","139.62328","35.70798","5","7"
"氷川神社","166-0003","東京都杉並区高円寺南4-44-19","東京都/杉並区/高円寺南/四丁目/４４番","139.65121","35.70480","5","7"
"馬橋稲荷神社【馬橋稲荷】","166-0004","東京都杉並区阿佐谷南2-4-4","東京都/杉並区/阿佐谷南/二丁目/４番","139.64217","35.70374","5","7"
"居木神社","141-0032","東京都品川区大崎3-8-20","東京都/品川区/大崎/三丁目/８番","139.72517","35.61982","5","7"
"荏原金刀比羅神社","142-0063","東京都品川区荏原1-16-4","東京都/品川区/荏原/一丁目/１６番","139.71642","35.61942","5","7"
"荏原神社【天王社】","140-0001","東京都品川区北品川2-30-28","東京都/品川区/北品川/二丁目/３０番","139.74364","35.61722","5","7"
"鹿嶋神社","140-0014","東京都品川区大井6-18-36","東京都/品川区/大井/六丁目/１８番","139.73033","35.59570","5","7"
"雉子神社【雉の宮】","141-0022","東京都品川区東五反田1-2-33","東京都/品川区/東五反田/一丁目/２番","139.72740","35.62880","5","7"
"貴船神社","141-0033","東京都品川区西品川3-16-31","東京都/品川区/西品川/三丁目/１６番","139.72617","35.61505","5","7"
"三谷八幡神社","142-0062","東京都品川区小山5-8-7","東京都/品川区/小山/五丁目/８番","139.70239","35.61706","5","7"
"品川神社【北の天王社】","140-0001","東京都品川区北品川3-7-15","東京都/品川区/北品川/三丁目/７番","139.73920","35.61713","5","7"
"天祖・諏訪神社","140-0013","東京都品川区南大井1-4-1","東京都/品川区/南大井/一丁目/４番","139.73868","35.59692","5","7"
"天祖神社【神明さま】","142-0043","東京都品川区二葉4-4-12","東京都/品川区/二葉/四丁目/４番","139.71535","35.60279","5","7"
"天祖神社【神明さま】","142-0043","東京都品川区二葉1-3-24","東京都/品川区/二葉/一丁目/３番","139.72572","35.60691","5","7"
"旗岡八幡神社","142-0064","東京都品川区旗の台3-6-12","東京都/品川区/旗の台/三丁目/６番","139.70789","35.60450","5","7"
"八幡神社【鮫洲八幡神社】","140-0011","東京都品川区東大井1-20-10","東京都/品川区/東大井/一丁目/２０番","139.74226","35.60467","5","7"
"八幡神社【戸越八幡神社】","142-0041","東京都品川区戸越2-6-23","東京都/品川区/戸越/二丁目/６番","139.71948","35.61322","5","7"
"八幡神社【小山八幡神社】","142-0063","東京都品川区荏原7-5-14","東京都/品川区/荏原/七丁目/５番","139.69928","35.61241","5","7"
"氷川神社","141-0031","東京都品川区西五反田5-6-3","東京都/品川区/西五反田/五丁目/６番","139.71558","35.62434","5","7"
"稲荷神社【十日森稲荷神社】","152-0001","東京都目黒区中央町2-17-15","東京都/目黒区/中央町/二丁目/１７番","139.68930","35.63317","5","7"
"稲荷神社【烏森稲荷神社】","153-0051","東京都目黒区上目黒3-39-14","東京都/目黒区/上目黒/三丁目/３９番","139.69244","35.64309","5","7"
"大鳥神社【目黒のお酉様】","153-0064","東京都目黒区下目黒3-1-2","東京都/目黒区/下目黒/三丁目/１番","139.70831","35.63203","5","7"
"熊野神社","152-0035","東京都目黒区自由が丘1-24-12","東京都/目黒区/自由が丘/一丁目/２４番","139.66862","35.60991","5","7"
"中目黒八幡神社","153-0061","東京都目黒区中目黒3-10-5","東京都/目黒区/中目黒/三丁目/１０番","139.70021","35.63964","5","7"
"氷川神社","153-0044","東京都目黒区大橋2-16-21","東京都/目黒区/大橋/二丁目/１６番","139.68700","35.65339","5","7"
"氷川神社","152-0023","東京都目黒区八雲2-4-16","東京都/目黒区/八雲/二丁目/４番","139.67096","35.61865","5","7"
"碑文谷八幡宮","152-0003","東京都目黒区碑文谷3-7-3","東京都/目黒区/碑文谷/三丁目/７番","139.68613","35.61749","5","7"
"穴守稲荷神社【あなもりさん】","144-0043","東京都大田区羽田5-2-7","東京都/大田区/羽田/五丁目/２番","139.74965","35.55002","5","7"
"磐井神社","143-0016","東京都大田区大森北2-20-8","東京都/大田区/大森北/二丁目/２０番","139.73576","35.58501","5","7"
"大森神社【寄來さま】","143-0016","東京都大田区大森北6-32-12","東京都/大田区/大森北/六丁目/３２番","139.73589","35.58065","5","7"
"御嶽神社【嶺の御嶽さん】","145-0073","東京都大田区北嶺町37-20","東京都/大田区/北嶺町/３７番","139.68106","35.58624","5","7"
"貴舩神社","143-0012","東京都大田区大森東3-9-19","東京都/大田区/大森東/三丁目/９番","139.73769","35.56976","5","7"
"熊野神社","143-0023","東京都大田区山王3-43-11","東京都/大田区/山王/三丁目/４３番","139.72136","35.58438","5","7"
"浅間神社【せんげんさま】","143-0015","東京都大田区大森西2-2-7","東京都/大田区/大森西/二丁目/２番","139.72833","35.57801","5","7"
"浅間神社【多摩川浅間神社】","145-0071","東京都大田区田園調布1-55-12","東京都/大田区/田園調布/一丁目/５５番","139.66924","35.58701","5","7"
"千束八幡神社【洗足池八幡宮】","145-0063","東京都大田区南千束2-23-10","東京都/大田区/南千束/二丁目/２３番","139.68909","35.60223","5","7"
"徳持神社【はちまん様】","146-0082","東京都大田区池上3-38-17","東京都/大田区/池上/三丁目/３８番","139.69940","35.57299","5","7"
"新田神社","146-0093","東京都大田区矢口1-21-23","東京都/大田区/矢口/一丁目/２１番","139.69136","35.56624","5","7"
"八幡神社【子安八幡】","146-0081","東京都大田区仲池上1-14-22","東京都/大田区/仲池上/一丁目/１４番","139.69853","35.58814","5","7"
"八幡神社【馬込八幡】","143-0025","東京都大田区南馬込5-2-11","東京都/大田区/南馬込/五丁目/２番","139.70987","35.59107","5","7"
"八幡神社【子安八幡神社】","144-0032","東京都大田区北糀谷1-22-10","東京都/大田区/北糀谷/一丁目/２２番","139.73572","35.56146","5","7"
"八幡神社【雪ヶ谷八幡神社】","145-0065","東京都大田区東雪谷2-25-1","東京都/大田区/東雪谷/二丁目/２５番","139.68625","35.59648","5","7"
"羽田神社","144-0044","東京都大田区本羽田3-9-12","東京都/大田区/本羽田/三丁目/９番","139.74057","35.54732","5","7"
"田神社","144-0052","東京都大田区蒲田3-2-10","東京都/大田区/蒲田/三丁目/２番","139.72241","35.56447","5","7"
"六郷神社","144-0046","東京都大田区東六郷3-10-18","東京都/大田区/東六郷/三丁目/１０番","139.71332","35.54415","5","7"
"稲荷神社【池尻稲荷神社】","154-0001","東京都世田谷区池尻2-34-15","東京都/世田谷区/池尻/二丁目/３４番","139.68161","35.64858","5","7"
"稲荷神社【大原稲荷】","156-0041","東京都世田谷区大原2-29-21","東京都/世田谷区/大原/二丁目/２９番","139.65738","35.67115","5","7"
"宇佐神社","158-0086","東京都世田谷区尾山台2-11-3","東京都/世田谷区/尾山台/二丁目/１１番","139.65503","35.60053","5","7"
"奥澤神社","158-0083","東京都世田谷区奥沢5-22-1","東京都/世田谷区/奥沢/五丁目/２２番","139.67085","35.60532","5","7"
"北澤八幡神社【北澤八幡宮】","155-0032","東京都世田谷区代沢3-25-3","東京都/世田谷区/代沢/三丁目/２５番","139.66954","35.65610","5","7"
"駒繋神社【子の明神】","154-0002","東京都世田谷区下馬4-27-26","東京都/世田谷区/下馬/四丁目/２７番","139.67998","35.63811","5","7"
"松陰神社","154-0023","東京都世田谷区若林4-35-1","東京都/世田谷区/若林/四丁目/３５番","139.65596","35.64688","5","7"
"菅原神社【菅原天神】","156-0043","東京都世田谷区松原3-20-16","東京都/世田谷区/松原/三丁目/２０番","139.64639","35.66485","5","7"
"世田谷八幡宮【宮の坂八幡様】","156-0051","東京都世田谷区宮坂1-26-3","東京都/世田谷区/宮坂/一丁目/２６番","139.64429","35.64873","5","7"
"瀬田玉川神社【おみたけさん】","158-0095","東京都世田谷区瀬田4-11-31","東京都/世田谷区/瀬田/四丁目/１１番","139.62671","35.62009","5","7"
"玉川神社【おくまんさま】","158-0082","東京都世田谷区等々力3-27-7","東京都/世田谷区/等々力/三丁目/２７番","139.65082","35.61037","5","7"
"天祖神社【伊勢宮】","156-0052","東京都世田谷区経堂4-33-2","東京都/世田谷区/経堂/四丁目/３３番","139.62822","35.64981","5","7"
"八幡神社【勝利八幡神社】","156-0045","東京都世田谷区桜上水3-21-6","東京都/世田谷区/桜上水/三丁目/２１番","139.63042","35.66263","5","7"
"八幡神社【太子堂八幡神社】","154-0004","東京都世田谷区太子堂5-23-4","東京都/世田谷区/太子堂/五丁目/２３番","139.66516","35.64752","5","7"
"東玉川神社","158-0084","東京都世田谷区東玉川1-32-9","東京都/世田谷区/東玉川/一丁目/３２番","139.67575","35.59698","5","7"
"氷川神社","157-0067","東京都世田谷区喜多見4-26-1","東京都/世田谷区/喜多見/四丁目/２６番","139.59364","35.62871","5","7"
"久富稲荷神社【久富稲荷】","154-0014","東京都世田谷区新町2-17-1","東京都/世田谷区/新町/二丁目/１７番","139.64865","35.62941","5","7"
"深沢神社","158-0081","東京都世田谷区深沢5-11-1","東京都/世田谷区/深沢/五丁目/１１番","139.65155","35.62011","5","7"
"六所神社","156-0044","東京都世田谷区赤堤2-25-2","東京都/世田谷区/赤堤/二丁目/２５番","139.64337","35.65841","5","7"
"六所神社","157-0064","東京都世田谷区給田1-3-7","東京都/世田谷区/給田/一丁目/３番","139.59210","35.66254","5","7"
"稲荷神社【飛木稲荷】","131-0045","東京都墨田区押上2-39-6","東京都/墨田区/押上/二丁目/３９番","139.81561","35.71410","5","7"
"稲荷神社【隅田稲荷神社】","131-0031","東京都墨田区墨田4-38-13","東京都/墨田区/墨田/四丁目/３８番","139.82440","35.73170","5","7"
"牛嶋神社【うしのごぜん社】","131-0033","東京都墨田区向島1-4-5","東京都/墨田区/向島/一丁目/４番","139.80476","35.71291","5","7"
"香取神社","131-0044","東京都墨田区文花2-5-8","東京都/墨田区/文花/二丁目/５番","139.82594","35.70864","5","7"
"五柱稲荷神社","130-0021","東京都墨田区緑4-11-6","東京都/墨田区/緑/四丁目/１１番","139.80765","35.69440","5","7"
"白鬚神社","131-0032","東京都墨田区東向島3-5-2","東京都/墨田区/東向島/三丁目/５番","139.81300","35.72529","5","7"
"白髭神社","131-0043","東京都墨田区立花6-19-17","東京都/墨田区/立花/六丁目/１９番","139.83707","35.71108","5","7"
"隅田川神社【水神さま】","131-0034","東京都墨田区堤通2-17-1","東京都/墨田区/堤通/二丁目/１７番","139.81383","35.73398","5","7"
"高木神社【第六天】","131-0045","東京都墨田区押上2-37-9","東京都/墨田区/押上/二丁目/３７番","139.81526","35.71488","5","7"
"野見宿禰神社【すくねさん】","130-0014","東京都墨田区亀沢2-8-10","東京都/墨田区/亀沢/二丁目/８番","139.80110","35.69681","5","7"
"初音森神社","130-0025","東京都墨田区千歳2-4-8","東京都/墨田区/千歳/二丁目/４番","139.79384","35.69048","5","7"
"三囲神社【みめぐり】","131-0033","東京都墨田区向島2-5-17","東京都/墨田区/向島/二丁目/５番","139.80673","35.71499","5","7"
"三輪里稲荷神社【こんにゃくいなり】","131-0041","東京都墨田区八広3-6-13","東京都/墨田区/八広/三丁目/６番","139.82619","35.72050","5","7"
"愛宕神社【愛宕さま】","136-0072","東京都江東区大島2-15-4","東京都/江東区/大島/二丁目/１５番","139.82346","35.69022","5","7"
"宇迦八幡宮","135-0013","東京都江東区千田12-8","東京都/江東区/千田/１２番","139.81483","35.68205","5","7"
"大島稲荷神社【大島神社】","136-0072","東京都江東区大島5-39-26","東京都/江東区/大島/五丁目/３９番","139.83672","35.68644","5","7"
"香取神社","136-0071","東京都江東区亀戸3-57-22","東京都/江東区/亀戸/三丁目/５７番","139.82518","35.70406","5","7"
"亀戸天神社【亀戸の天神様】","136-0071","東京都江東区亀戸3-6-1","東京都/江東区/亀戸/三丁目/６番","139.82045","35.70364","5","7"
"猿江神社【猿江いなり】","135-0003","東京都江東区猿江2-2-17","東京都/江東区/猿江/二丁目/２番","139.81432","35.68583","5","7"
"志演尊空神社【ごまの稲荷】","136-0073","東京都江東区北砂2-1-37","東京都/江東区/北砂/二丁目/１番","139.82628","35.67802","5","7"
"洲﨑神社【洲﨑弁天】","135-0042","東京都江東区木場6-13-13","東京都/江東区/木場/六丁目/１３番","139.80730","35.66834","5","7"
"亀戸浅間神社【お富士様】","136-0071","東京都江東区亀戸9-15-7","東京都/江東区/亀戸/九丁目/１５番","139.84451","35.69573","5","7"
"天祖神社【神明さま】","136-0071","東京都江東区亀戸3-38-35","東京都/江東区/亀戸/三丁目/３８番","139.82106","35.70642","5","7"
"富賀岡八幡宮【元八幡宮】","136-0076","東京都江東区南砂7-14-18","東京都/江東区/南砂/七丁目/１４番","139.83766","35.66920","5","7"
"東大島神社","136-0072","東京都江東区大島7-24-1","東京都/江東区/大島/七丁目/２４番","139.84097","35.69081","5","7"
"深川神明宮","135-0004","東京都江東区森下1-3-17","東京都/江東区/森下/一丁目/３番","139.79739","35.68645","5","7"
"正木稲荷神社","135-0006","東京都江東区常盤1-1-2","東京都/江東区/常盤/一丁目/１番","139.79391","35.68381","5","7"
"綾瀬稲荷神社【五兵衛さま】","120-0005","東京都足立区綾瀬4-9-9","東京都/足立区/綾瀬/四丁目/９番","139.82224","35.76227","5","7"
"稲荷神社","120-0022","東京都足立区柳原2-38-1","東京都/足立区/柳原/二丁目/３８番","139.81282","35.74793","5","7"
"稲荷神社","120-0037","東京都足立区千住河原町10-13","東京都/足立区/千住河原町/１０番","139.79787","35.74371","5","7"
"稲荷神社","123-0851","東京都足立区梅田5-9-5","東京都/足立区/梅田/五丁目/９番","139.79279","35.76792","5","7"
"稲荷神社【西之宮】","120-0015","東京都足立区足立3-28-13","東京都/足立区/足立/三丁目/２８番","139.81139","35.76420","5","7"
"梅田神明宮【しんめいさま】","123-0851","東京都足立区梅田6-19-4","東京都/足立区/梅田/六丁目/１９番","139.79543","35.76696","5","7"
"大鷲神社【花畑おとりさま】","121-0061","東京都足立区花畑7-16-8","東京都/足立区/花畑/七丁目/１６番","139.82037","35.80860","5","7"
"千住神社","120-0043","東京都足立区千住宮元町24-1","東京都/足立区/千住宮元町/２４番","139.79631","35.74725","5","7"
"千住本氷川神社","120-0034","東京都足立区千住3-22","東京都/足立区/千住/三丁目/２２番地","139.80209","35.75248","5","7"
"氷川神社","120-0036","東京都足立区千住仲町48-2","東京都/足立区/千住仲町/４８番","139.80225","35.74413","5","7"
"氷川神社","121-0812","東京都足立区西保木間1-11-4","東京都/足立区/西保木間/一丁目/１１番","139.79932","35.79594","5","7"
"氷川神社【下沼田ひかわさま】","123-0872","東京都足立区江北2-43-8","東京都/足立区/江北/二丁目/４３番","139.76167","35.77024","5","7"
"鷲神社【わしだいみょうじん・おとりさま】","120-0815","東京都足立区島根4-25-1","東京都/足立区/島根/四丁目/２５番","139.79655","35.78518","5","7"
"於玉稲荷神社","124-0024","東京都葛飾区新小岩4-21-6","東京都/葛飾区/新小岩/四丁目/２１番","139.86581","35.71817","5","7"
"葛西神社","125-0041","東京都葛飾区東金町6-10-5","東京都/葛飾区/東金町/六丁目/１０番","139.87852","35.77127","5","7"
"香取神社【三社明神】","125-0061","東京都葛飾区亀有3-42-24","東京都/葛飾区/亀有/三丁目/４２番","139.85045","35.76605","5","7"
"熊野神社","124-0012","東京都葛飾区立石8-44-31","東京都/葛飾区/立石/八丁目/４４番","139.85797","35.74020","5","7"
"白髭神社【客人大権現】","124-0014","東京都葛飾区東四つ木4-36-18","東京都/葛飾区/東四つ木/四丁目/３６番","139.84018","35.73296","5","7"
"天祖神社","124-0023","東京都葛飾区東新小岩8-6-20","東京都/葛飾区/東新小岩/八丁目/６番","139.85017","35.72642","5","7"
"天祖神社","124-0006","東京都葛飾区堀切3-11-2","東京都/葛飾区/堀切/三丁目/１１番","139.82887","35.74703","5","7"
"天祖神社","125-0054","東京都葛飾区高砂2-13-13","東京都/葛飾区/高砂/二丁目/１３番","139.86528","35.75006","5","7"
"半田稲荷神社","125-0041","東京都葛飾区東金町4-28-22","東京都/葛飾区/東金町/四丁目/２８番","139.87784","35.77586","5","7"
"日枝神社【山王様】","125-0051","東京都葛飾区新宿2-1-17","東京都/葛飾区/新宿/二丁目/１番","139.85712","35.75952","5","7"
"氷川神社","124-0006","東京都葛飾区堀切5-38-10","東京都/葛飾区/堀切/五丁目/３８番","139.83034","35.74960","5","7"
"稲荷神社","134-0081","東京都江戸川区北葛西4-24-16","東京都/江戸川区/北葛西/四丁目/２４番","139.86543","35.67022","5","7"
"香取神社【ままい神社】","132-0021","東京都江戸川区中央4-5-23","東京都/江戸川区/中央/四丁目/５番","139.86682","35.71163","5","7"
"香取神社","134-0084","東京都江戸川区東葛西2-34-20","東京都/江戸川区/東葛西/二丁目/３４番","139.88057","35.66831","5","7"
"小岩神社","133-0052","東京都江戸川区東小岩6-15-15","東京都/江戸川区/東小岩/六丁目/１５番","139.88869","35.73521","5","7"
"諏訪神社","132-0035","東京都江戸川区平井6-17-36","東京都/江戸川区/平井/六丁目/１７番","139.83821","35.70814","5","7"
"浅間神社【浅間さま】","133-0054","東京都江戸川区上篠崎1-22-31","東京都/江戸川区/上篠崎/一丁目/２２番","139.90207","35.71491","5","7"
"天祖神社","134-0084","東京都江戸川区東葛西7-17","東京都/江戸川区/東葛西/七丁目/１７番","139.87762","35.65878","5","7"
"赤城神社【赤城さん】","162-0817","東京都新宿区赤城元町1-10","東京都/新宿区/赤城元町/１番","139.73659","35.70452","5","7"
"穴八幡宮","162-0051","東京都新宿区西早稲田2-1-11","東京都/新宿区/西早稲田/二丁目/１番","139.71750","35.70699","5","7"
"稲荷鬼王神社","160-0021","東京都新宿区歌舞伎町2-17-5","東京都/新宿区/歌舞伎町/二丁目/１７番","139.70523","35.69786","5","7"
"皆中稲荷神社","169-0073","東京都新宿区百人町1-11-16","東京都/新宿区/百人町/一丁目/１１番","139.69948","35.70059","5","7"
"神楽坂若宮八幡神社","162-0827","東京都新宿区若宮町18","東京都/新宿区/若宮町/１８番地","139.74013","35.69997","5","7"
"熊野神社【十二社熊野神社】","160-0023","東京都新宿区西新宿2-11-2","東京都/新宿区/西新宿/二丁目/１１番","139.68770","35.69110","5","7"
"御霊神社","161-0035","東京都新宿区中井2-29-16","東京都/新宿区/中井/二丁目/２９番","139.68015","35.71651","5","7"
"御霊神社","161-0031","東京都新宿区西落合2-17-17","東京都/新宿区/西落合/二丁目/１７番","139.67610","35.72189","5","7"
"須賀神社【天王様】","160-0018","東京都新宿区須賀町5","東京都/新宿区/須賀町/５番地","139.72220","35.68574","5","7"
"諏訪神社【おすわ様】","169-0075","東京都新宿区高田馬場1-12-6","東京都/新宿区/高田馬場/一丁目/１２番","139.70746","35.70893","5","7"
"月見岡八幡神社","161-0034","東京都新宿区上落合1-26-19","東京都/新宿区/上落合/一丁目/２６番","139.69090","35.71284","5","7"
"成子天神社【天神さま】","160-0023","東京都新宿区西新宿8-14-10","東京都/新宿区/西新宿/八丁目/１４番","139.69202","35.69578","5","7"
"西向天神社","160-0022","東京都新宿区新宿6-21-1","東京都/新宿区/新宿/六丁目/２１番","139.71121","35.69661","5","7"
"八幡神社【筑土八幡神社】","162-0815","東京都新宿区筑土八幡町2-1","東京都/新宿区/筑土八幡町/２番","139.74054","35.70391","5","7"
"花園神社","160-0022","東京都新宿区新宿5-17-3","東京都/新宿区/新宿/五丁目/１７番","139.70567","35.69276","5","7"
"氷川神社","161-0033","東京都新宿区下落合2-7-12","東京都/新宿区/下落合/二丁目/７番","139.69916","35.71672","5","7"
"水稲荷神社","169-0051","東京都新宿区西早稲田3-5-43","東京都/新宿区/西早稲田/三丁目/５番","139.71565","35.71180","5","7"
"鎧神社","169-0074","東京都新宿区北新宿3-16-18","東京都/新宿区/北新宿/三丁目/１６番","139.69150","35.70478","5","7"
"稲荷神社【子安稲荷】","170-0012","東京都豊島区上池袋2-38-4","東京都/豊島区/上池袋/二丁目/３８番","139.71863","35.73629","5","7"
"大鳥神社【雑司が谷のお酉様】","171-0032","東京都豊島区雑司が谷3-20-14","東京都/豊島区/雑司が谷/三丁目/２０番","139.71561","35.72198","5","7"
"菅原神社【子安天満宮】","170-0004","東京都豊島区北大塚1-7-3","東京都/豊島区/北大塚/一丁目/７番","139.73386","35.73167","5","7"
"染井稲荷神社","170-0003","東京都豊島区駒込6-11-5","東京都/豊島区/駒込/六丁目/１１番","139.74249","35.73885","5","7"
"大國神社","170-0003","東京都豊島区駒込3-2-11","東京都/豊島区/駒込/三丁目/２番","139.74628","35.73664","5","7"
"天祖神社","170-0005","東京都豊島区南大塚3-49-1","東京都/豊島区/南大塚/三丁目/４９番","139.72781","35.73046","5","7"
"長崎神社","171-0051","東京都豊島区長崎1-9-4","東京都/豊島区/長崎/一丁目/９番","139.69556","35.72727","5","7"
"氷川神社","170-0011","東京都豊島区池袋本町3-14-1","東京都/豊島区/池袋本町/三丁目/１４番","139.71114","35.74363","5","7"
"氷川神社【高田總鎭守氷川神社】","171-0033","東京都豊島区高田2-2-18","東京都/豊島区/高田/二丁目/２番","139.71416","35.71414","5","7"
"御嶽神社","171-0014","東京都豊島区池袋3-51-2","東京都/豊島区/池袋/三丁目/５１番","139.70645","35.73651","5","7"
"妙義神社","170-0003","東京都豊島区駒込3-16-16","東京都/豊島区/駒込/三丁目/１６番","139.74481","35.73817","5","7"
"王子稲荷神社","114-0021","東京都北区岸町1-12-26","東京都/北区/岸町/一丁目/１２番","139.73326","35.75652","5","7"
"王子神社【王子権現】","114-0022","東京都北区王子本町1-1-12","東京都/北区/王子本町/一丁目/１番","139.73563","35.75325","5","7"
"柏木神社","115-0043","東京都北区神谷3-55-5","東京都/北区/神谷/三丁目/５５番","139.73022","35.76983","5","7"
"香取神社","115-0055","東京都北区赤羽西2-22-7","東京都/北区/赤羽西/二丁目/２２番","139.72054","35.77122","5","7"
"紀州神社","114-0003","東京都北区豊島7-15-1","東京都/北区/豊島/七丁目/１５番","139.74480","35.76435","5","7"
"熊野神社","115-0042","東京都北区志茂4-19-1","東京都/北区/志茂/四丁目/１９番","139.73209","35.78344","5","7"
"諏訪神社","115-0052","東京都北区赤羽北3-1-2","東京都/北区/赤羽北/三丁目/１番","139.70842","35.78390","5","7"
"田端八幡神社","114-0014","東京都北区田端2-7-2","東京都/北区/田端/二丁目/７番","139.75882","35.73565","5","7"
"七社神社","114-0024","東京都北区西ヶ原2-11-1","東京都/北区/西ケ原/二丁目/１１番","139.74138","35.74836","5","7"
"白山神社","114-0004","東京都北区堀船3-11-3","東京都/北区/堀船/三丁目/１１番","139.75008","35.75433","5","7"
"八幡神社","115-0053","東京都北区赤羽台4-1-6","東京都/北区/赤羽台/四丁目/１番","139.71750","35.78294","5","7"
"八幡神社【たきのがわ八幡】","114-0023","東京都北区滝野川5-26-15","東京都/北区/滝野川/五丁目/２６番","139.72643","35.74838","5","7"
"八幡神社【上田端八幡神社】","114-0014","東京都北区田端4-18-1","東京都/北区/田端/四丁目/１８番","139.75478","35.73774","5","7"
"日枝神社","114-0014","東京都北区田端3-20-2","東京都/北区/田端/三丁目/２０番","139.75575","35.73616","5","7"
"氷川神社","115-0051","東京都北区浮間2-19-1","東京都/北区/浮間/二丁目/１９番","139.69562","35.79445","5","7"
"平塚神社","114-0016","東京都北区上中里1-47-1","東京都/北区/上中里/一丁目/４７番","139.74588","35.74577","5","7"
"船方神社【十二天さま】","114-0004","東京都北区堀船4-13-28","東京都/北区/堀船/四丁目/１３番","139.75719","35.75399","5","7"
"八雲神社","115-0041","東京都北区岩淵町22-21","東京都/北区/岩淵町/２２番","139.72493","35.78580","5","7"
"稲荷神社【清水稲荷】","174-0054","東京都板橋区宮本町54-1","東京都/板橋区/宮本町/５４番","139.70245","35.76434","5","7"
"稲荷神社","174-0065","東京都板橋区若木1-13-1","東京都/板橋区/若木/一丁目/１３番","139.67567","35.76852","5","7"
"北野神社【徳丸天神様】","175-0083","東京都板橋区徳丸6-34-3","東京都/板橋区/徳丸/六丁目/３４番","139.66034","35.77893","5","7"
"熊野神社","173-0025","東京都板橋区熊野町11-2","東京都/板橋区/熊野町/１１番","139.70645","35.74178","5","7"
"熊野神社","174-0056","東京都板橋区志村2-16-2","東京都/板橋区/志村/二丁目/１６番","139.68642","35.77558","5","7"
"熊野神社","174-0063","東京都板橋区前野町3-38-3","東京都/板橋区/前野町/三丁目/３８番","139.69324","35.77015","5","7"
"子易神社","173-0004","東京都板橋区板橋2-19-20","東京都/板橋区/板橋/二丁目/１９番","139.70885","35.74774","5","7"
"天祖神社","175-0045","東京都板橋区西台2-6-29","東京都/板橋区/西台/二丁目/６番","139.66887","35.77834","5","7"
"天祖神社【神明様】","174-0072","東京都板橋区南常盤台2-4-3","東京都/板橋区/南常盤台/二丁目/４番","139.68782","35.75835","5","7"
"氷川神社","173-0013","東京都板橋区氷川町21-8","東京都/板橋区/氷川町/２１番","139.70682","35.75647","5","7"
"氷川神社","173-0011","東京都板橋区双葉町43-1","東京都/板橋区/双葉町/４３番","139.70128","35.75905","5","7"
"氷川神社","174-0074","東京都板橋区東新町2-16-1","東京都/板橋区/東新町/二丁目/１６番","139.68251","35.75453","5","7"
"氷川神社","175-0092","東京都板橋区赤塚4-22-1","東京都/板橋区/赤塚/四丁目/２２番","139.63977","35.78539","5","7"
"御嶽神社【石神井の御嶽様】","177-0042","東京都練馬区下石神井4-34-9","東京都/練馬区/下石神井/四丁目/３４番","139.60042","35.72885","5","7"
"北野神社","178-0063","東京都練馬区東大泉4-25-4","東京都/練馬区/東大泉/四丁目/２５番","139.58392","35.75219","5","7"
"竹下稲荷神社","177-0053","東京都練馬区関町南2-3-22","東京都/練馬区/関町南/二丁目/３番","139.58794","35.72021","5","7"
"天祖若宮八幡宮","177-0051","東京都練馬区関町北3-34-32","東京都/練馬区/関町北/三丁目/３４番","139.57072","35.72652","5","7"
"土支田八幡宮","179-0076","東京都練馬区土支田4-28-1","東京都/練馬区/土支田/四丁目/２８番","139.61287","35.76830","5","7"
"氷川神社【石神井の氷川さま】","177-0045","東京都練馬区石神井台1-18-24","東京都/練馬区/石神井台/一丁目/１８番","139.59590","35.73690","5","7"
"氷川神社","179-0084","東京都練馬区氷川台4-47-3","東京都/練馬区/氷川台/四丁目/４７番","139.66457","35.75242","5","7"
"氷川神社","176-0014","東京都練馬区豊玉南2-15-5","東京都/練馬区/豊玉南/二丁目/１５番","139.65645","35.72872","5","7"
"氷川神社","177-0033","東京都練馬区高野台1-16-7","東京都/練馬区/高野台/一丁目/１６番","139.61708","35.74472","5","7"
"氷川神社【大泉氷川神社】","178-0062","東京都練馬区大泉町5-15-5","東京都/練馬区/大泉町/五丁目/１５番","139.59465","35.75817","5","7"
"武蔵野稲荷神社","176-0006","東京都練馬区栄町10-1","東京都/練馬区/栄町/１０番","139.66913","35.73795","5","7"
"八雲神社","176-0004","東京都練馬区小竹町2-42-12","東京都/練馬区/小竹町/二丁目/４２番","139.67622","35.74321","5","7"
"石浜神社【しんめい様】","116-0003","東京都荒川区南千住3-28-58","東京都/荒川区/南千住/三丁目/２８番","139.80701","35.72975","5","7"
"胡録神社【第六天】","116-0003","東京都荒川区南千住8-5-6","東京都/荒川区/南千住/八丁目/５番","139.80527","35.73819","5","7"
"素盞雄神社【千住天王】","116-0003","東京都荒川区南千住6-60-1","東京都/荒川区/南千住/六丁目/６０番","139.79617","35.73726","5","7"
"諏方神社【おすわさま】","116-0013","東京都荒川区西日暮里3-4-8","東京都/荒川区/西日暮里/三丁目/４番","139.76703","35.73102","5","7"
"八幡神社【おぐはちまん】","116-0011","東京都荒川区西尾久3-7-3","東京都/荒川区/西尾久/三丁目/７番","139.76492","35.75043","5","7"
"青渭神社【おそうがく様】","198-0172","東京都青梅市沢井3-1060","東京都/青梅市/沢井/三丁目","139.18094","35.81705","5","6"
"鹿島玉川神社","198-0052","東京都青梅市長渕2-519","東京都/青梅市/長淵/二丁目/５１９番地","139.27162","35.77765","5","7"
"春日神社【かすがさま】","198-0032","東京都青梅市野上町1-38","東京都/青梅市/野上町/一丁目/３８番地","139.28532","35.79671","5","7"
"勝沼神社【神明様】","198-0041","東京都青梅市勝沼3-140","東京都/青梅市/勝沼/三丁目/１４０番地","139.26582","35.79197","5","7"
"白鬚神社【しらひげ様】","198-0003","東京都青梅市小曽木2-888","東京都/青梅市/小曾木/二丁目","139.28627","35.81150","5","6"
"住吉神社","198-0084","東京都青梅市住江町12","東京都/青梅市/住江町/１２番地","139.26132","35.78960","5","7"
"千ヶ瀬神社","198-0043","東京都青梅市千ヶ瀬町2-117","東京都/青梅市/千ヶ瀬町/二丁目/１１７番地","139.27585","35.78658","5","7"
"成木神社","198-0001","東京都青梅市成木3-207","東京都/青梅市/成木/三丁目/２０７番地","139.26570","35.83120","5","7"
"御嶽神社","198-0024","東京都青梅市新町2-28-26","東京都/青梅市/新町/二丁目/２８番","139.29919","35.79119","5","7"
"八坂神社【おてんのうさま】","198-0003","東京都青梅市小曽木3-1629-2","東京都/青梅市/小曾木/三丁目","139.27342","35.81716","5","6"
"和田乃神社","198-0046","東京都青梅市日向和田2-317","東京都/青梅市/日向和田/二丁目/３１７番地","139.23611","35.78622","5","7"
"小河内神社","198-0224","東京都西多摩郡奥多摩町河内149","東京都/西多摩郡/奥多摩町/河内","139.02251","35.74968","5","5"
"熊野神社","198-0105","東京都西多摩郡奥多摩町小丹波473","東京都/西多摩郡/奥多摩町/小丹波","139.14850","35.81846","5","5"
"天祖神社","198-0211","東京都西多摩郡奥多摩町日原1030","東京都/西多摩郡/奥多摩町/日原","139.01392","35.85801","5","5"
"八雲神社","198-0102","東京都西多摩郡奥多摩町川井717","東京都/西多摩郡/奥多摩町/川井","139.16562","35.81798","5","5"
"阿豆佐味天神社","190-1212","東京都西多摩郡瑞穂町殿ヶ谷宮前1008","東京都/西多摩郡/瑞穂町/殿ケ谷","139.35870","35.76109","5","5"
"狭山神社","190-1221","東京都西多摩郡瑞穂町箱根ケ崎1","東京都/西多摩郡/瑞穂町/箱根ケ崎/１番地","139.35097","35.77685","5","7"
"元狭山神社","190-1202","東京都西多摩郡瑞穂町駒形富士山609","東京都/西多摩郡/瑞穂町/駒形富士山/６０９番地","139.35394","35.78840","5","7"
"阿蘇神社","205-0016","東京都羽村市羽加美4-6-7","東京都/羽村市/羽加美/四丁目/６番","139.29826","35.76275","5","7"
"玉川神社【おすわさま】","205-0015","東京都羽村市羽中4-1-16","東京都/羽村市/羽中/四丁目/１番","139.30362","35.76087","5","7"
"熊川神社","197-0003","東京都福生市熊川660","東京都/福生市/熊川/６６０番地","139.33401","35.72325","5","7"
"福生神明社","197-0011","東京都福生市福生1081","東京都/福生市/福生/１０８１番地","139.32364","35.74416","5","7"
"秋川神明社【山王さま】","197-0826","東京都あきる野市牛沼字東竜ケ崎88","東京都/あきる野市/牛沼","139.28755","35.71844","5","5"
"阿伎留神社【松原さま】","190-0164","東京都あきる野市五日市1081","東京都/あきる野市/五日市/１０８１番地","139.22256","35.72540","5","7"
"稲足神社","197-0801","東京都あきる野市菅生字下871番地","東京都/あきる野市/菅生","139.28683","35.75100","5","5"
"大戸里神社","190-0174","東京都あきる野市乙津294","東京都/あきる野市/乙津/２９４番地","139.18779","35.72969","5","7"
"高明神社","190-0174","東京都あきる野市乙津2123","東京都/あきる野市/乙津","139.17746","35.72725","5","5"
"小宮神社【明神さま】","197-0802","東京都あきる野市草花北小宮2981","東京都/あきる野市/草花","139.30542","35.74117","5","5"
"正一位岩走神社【明神さま】","190-0142","東京都あきる野市伊奈1575","東京都/あきる野市/伊奈/１５７５番地","139.24390","35.73079","5","7"
"二宮神社【みょうじんさま】","197-0814","東京都あきる野市二宮2252","東京都/あきる野市/二宮/２２５２番地","139.31393","35.72739","5","7"
"八幡神社","190-0174","東京都あきる野市乙津323","東京都/あきる野市/乙津","139.17746","35.72725","5","5"
"三島神社","190-0173","東京都あきる野市戸倉字城山414","東京都/あきる野市/戸倉","139.19019","35.71362","5","5"
"八雲神社【てんのうさま】","197-0823","東京都あきる野市野辺316","東京都/あきる野市/野辺/３１６番地","139.31206","35.72249","5","7"
"春日神社【春日さま】","190-0182","東京都西多摩郡日の出町平井3690","東京都/西多摩郡/日の出町/平井/３６９０番地","139.26860","35.74270","5","7"
"幸神神社","190-0181","東京都西多摩郡日の出町大久野2129","東京都/西多摩郡/日の出町/大久野/２１２９番地","139.22833","35.74455","5","7"
"白山神社【白山さま】","190-0181","東京都西多摩郡日の出町大久野2281","東京都/西多摩郡/日の出町/大久野","139.21674","35.76409","5","5"
"八幡神社","190-0182","東京都西多摩郡日の出町平井1811","東京都/西多摩郡/日の出町/平井/１８１１番地","139.26373","35.73894","5","7"
"三嶋神社","190-0181","東京都西多摩郡日の出町大久野8748","東京都/西多摩郡/日の出町/大久野/８７４８番地","139.24811","35.74770","5","7"
"伊勢社","190-0204","東京都西多摩郡檜原村3684","東京都/西多摩郡/檜原村","139.14885","35.72684","5","3"
"大嶽神社","190-0200","東京都西多摩郡檜原村8189","東京都/西多摩郡/檜原村","139.14885","35.72684","5","3"
"春日神社","190-0203","東京都西多摩郡檜原村3417","東京都/西多摩郡/檜原村","139.14885","35.72684","5","3"
"九頭龍神社","190-0221","東京都西多摩郡檜原村7076","東京都/西多摩郡/檜原村","139.14885","35.72684","5","3"
"今熊神社【今熊大権現】","192-0151","東京都八王子市上川町19","東京都/八王子市/上川町/１９番地","139.21336","35.71106","5","7"
"産千代稲荷神社","192-0054","東京都八王子市小門町82","東京都/八王子市/小門町/８２番地","139.32483","35.65852","5","7"
"子安神社","192-0046","東京都八王子市明神町4-10-3","東京都/八王子市/明神町/四丁目/１０番","139.34106","35.65905","5","7"
"住吉神社","192-0001","東京都八王子市戸吹町503","東京都/八王子市/戸吹町","139.28920","35.70714","5","5"
"住吉神社琴平神社合社【宮尾神社】","192-0156","東京都八王子市上恩方町2089","東京都/八王子市/上恩方町/２０８９番地","139.21362","35.67815","5","7"
"諏訪神社","193-0812","東京都八王子市諏訪町1","東京都/八王子市/諏訪町/１番地","139.28961","35.67748","5","7"
"諏訪神社","192-0375","東京都八王子市鑓水1070","東京都/八王子市/鑓水","139.35637","35.61122","5","5"
"多賀神社","192-0051","東京都八王子市元本郷町4-9-21","東京都/八王子市/元本郷町/四丁目/９番","139.31314","35.66394","5","7"
"天満社","192-0906","東京都八王子市北野町550-1","東京都/八王子市/北野町/５５０番地","139.35301","35.64682","5","7"
"八幡神社","193-0826","東京都八王子市元八王子町3-2284","東京都/八王子市/元八王子町/三丁目/２２８４番地","139.27591","35.65620","5","7"
"八幡八雲神社","192-0063","東京都八王子市元横山町2-15-27","東京都/八王子市/元横山町/二丁目/１５番","139.33543","35.66132","5","7"
"日枝神社","192-0045","東京都八王子市大和田町4-4-6","東京都/八王子市/大和田町/四丁目/４番","139.35515","35.66318","5","7"
"日枝神社","193-0822","東京都八王子市弐分方町2","東京都/八王子市/弐分方町/２番地","139.27618","35.68188","5","7"
"日吉八王子神社","193-0836","東京都八王子市日吉町8-20","東京都/八王子市/日吉町/８番","139.31183","35.66129","5","7"
"八坂神社【天王様】","191-0011","東京都日野市日野本町3-14-12","東京都/日野市/日野本町/三丁目/１４番","139.39600","35.67904","5","7"
"若宮神社","191-0052","東京都日野市東豊田2-32-5","東京都/日野市/東豊田/二丁目/３２番","139.38832","35.66319","5","7"
"春日神社","195-0062","東京都町田市大蔵町2822","東京都/町田市/大蔵町/２８２２番地","139.45941","35.58596","5","7"
"熊野神社","194-0004","東京都町田市鶴間580","東京都/町田市/鶴間","139.46777","35.51228","5","5"
"諏訪神社【相原のお諏訪様】","194-0211","東京都町田市相原町1743","東京都/町田市/相原町/１７４３番地","139.32784","35.60691","5","7"
"能ヶ谷神社","195-0053","東京都町田市能ヶ谷6-20-1","東京都/町田市/能ヶ谷/六丁目/２０番","139.48271","35.58805","5","7"
"八幡社【箭幹八幡宮】","194-0214","東京都町田市矢部町2666","東京都/町田市/矢部町/２６６６番地","139.40590","35.57969","5","7"
"町田天満宮","194-0013","東京都町田市原町田1-21-5","東京都/町田市/原町田/一丁目/２１番","139.45184","35.53809","5","7"
"母智丘神社","194-0013","東京都町田市原町田5-12-11","東京都/町田市/原町田/五丁目/１２番","139.45015","35.54706","5","7"
"小野神社","206-0002","東京都多摩市一ノ宮1-18-8","東京都/多摩市/一ノ宮/一丁目/１８番","139.44214","35.65300","5","7"
"白山神社","206-0021","東京都多摩市連光寺6-6-11","東京都/多摩市/連光寺/六丁目/６番","139.46735","35.63380","5","7"
"青渭神社","206-0802","東京都稲城市東長沼1054","東京都/稲城市/東長沼","139.50426","35.63477","5","5"
"穴澤天神社","206-0812","東京都稲城市矢野口3292","東京都/稲城市/矢野口/３２９２番地","139.51773","35.63091","5","7"
"石井神社","183-0013","東京都府中市小柳町","東京都/府中市/小柳町","139.50407","35.66517","5","5"
"稲荷神社【御殿稲荷】","183-0027","東京都府中市本町2-5-4","東京都/府中市/本町/二丁目/５番","139.47484","35.66759","5","7"
"稲荷神社","183-0032","東京都府中市本宿町","東京都/府中市/本宿町","139.45921","35.67049","5","5"
"稲荷神社【人見稲荷】","183-0005","東京都府中市若松町","東京都/府中市/若松町","139.50029","35.66880","5","5"
"稲荷神社","183-0026","東京都府中市南町","東京都/府中市/南町","139.47151","35.66000","5","5"
"上ノ島神社","183-0035","東京都府中市四谷","東京都/府中市/四谷","139.45119","35.65932","5","5"
"大國魂神社【武蔵総社・六社さま】","183-0023","東京都府中市宮町3-1","東京都/府中市/宮町/三丁目/１番","139.47940","35.66915","5","7"
"押立神社【手津久里稲荷】","183-0012","東京都府中市押立町4-31-15","東京都/府中市/押立町/四丁目/３１番","139.51688","35.65460","5","7"
"小野神社","183-0034","東京都府中市住吉町","東京都/府中市/住吉町","139.45972","35.66084","5","5"
"上染屋八幡神社","183-0011","東京都府中市白糸台","東京都/府中市/白糸台","139.50723","35.66837","5","5"
"熊野神社","183-0031","東京都府中市西府町2-9-5","東京都/府中市/西府町/二丁目/９番","139.45692","35.67488","5","7"
"神明社","183-0011","東京都府中市白糸台3-10-1","東京都/府中市/白糸台/三丁目/１０番","139.51544","35.66636","5","7"
"神明社【三社宮】","183-0035","東京都府中市四谷2-44-4","東京都/府中市/四谷/二丁目/４４番地","139.44566","35.66558","5","7"
"浅間神社","183-0045","東京都府中市美好町","東京都/府中市/美好町","139.47044","35.67286","5","5"
"八幡神社【是政八幡】","183-0014","東京都府中市是政","東京都/府中市/是政","139.49452","35.66242","5","5"
"八幡神社【常久八幡】","183-0005","東京都府中市若松町","東京都/府中市/若松町","139.50029","35.66880","5","5"
"八幡神社","183-0011","東京都府中市白糸台5-20-4","東京都/府中市/白糸台/五丁目/２０番","139.51297","35.66318","5","7"
"八幡神社","183-0026","東京都府中市南町4-29","東京都/府中市/南町/四丁目/２９番","139.46263","35.65802","5","7"
"日枝神社","183-0045","東京都府中市美好町","東京都/府中市/美好町","139.47044","35.67286","5","5"
"本村神社【天王様】","183-0012","東京都府中市押立町","東京都/府中市/押立町","139.50967","35.65944","5","5"
"間島神社","183-0034","東京都府中市住吉町","東京都/府中市/住吉町","139.45972","35.66084","5","5"
"御嶽神社","183-0034","東京都府中市住吉町","東京都/府中市/住吉町","139.45972","35.66084","5","5"
"三谷神社","183-0002","東京都府中市多磨町","東京都/府中市/多磨町","139.52051","35.67947","5","5"
"八雲神社","183-0033","東京都府中市分梅町","東京都/府中市/分梅町","139.46576","35.66755","5","5"
"市杵島神社【弁天さま】","184-0002","東京都小金井市梶野町","東京都/小金井市/梶野町","139.52985","35.70359","5","5"
"稲穂神社【山王稲穂神社】","184-0004","東京都小金井市本町5-41-36","東京都/小金井市/本町/五丁目/４１番","139.50093","35.70603","5","7"
"稲荷神社【笠森稲荷さま】","184-0011","東京都小金井市東町","東京都/小金井市/東町","139.52388","35.68948","5","5"
"稲荷神社","184-0005","東京都小金井市桜町","東京都/小金井市/桜町","139.51022","35.71011","5","5"
"稲荷神社","184-0002","東京都小金井市梶野町","東京都/小金井市/梶野町","139.52985","35.70359","5","5"
"上宮大澤神社","184-0014","東京都小金井市貫井南町2-1-24","東京都/小金井市/貫井南町/二丁目/１番","139.49883","35.69269","5","7"
"小金井神社【天神さま】","184-0012","東京都小金井市中町4-7-2","東京都/小金井市/中町/四丁目/７番","139.50851","35.69498","5","7"
"神明宮","184-0013","東京都小金井市前原町","東京都/小金井市/前原町","139.51155","35.68937","5","5"
"天神社【関野天神】","184-0011","東京都小金井市東町","東京都/小金井市/東町","139.52388","35.68948","5","5"
"貫井神社【貫井弁天】","184-0014","東京都小金井市貫井南町","東京都/小金井市/貫井南町","139.49568","35.69023","5","5"
"八幡神社","184-0001","東京都小金井市関野町","東京都/小金井市/関野町","139.52209","35.71584","5","5"
"八重垣稲荷神社","184-0012","東京都小金井市中町3-14-7","東京都/小金井市/中町/三丁目/１４番","139.51431","35.69858","5","7"
"愛宕神社","185-0001","東京都国分寺市北町2-13-5","東京都/国分寺市/北町/二丁目/１３番","139.45360","35.71707","5","7"
"稲荷神社","185-0034","東京都国分寺市光町3-17-2","東京都/国分寺市/光町/三丁目/１７番","139.44203","35.70663","5","7"
"熊野神社","185-0013","東京都国分寺市西恋ヶ窪1-27-17","東京都/国分寺市/西恋ケ窪/一丁目/２７番","139.46817","35.70362","5","7"
"神明社","185-0035","東京都国分寺市西町2-27-10","東京都/国分寺市/西町/二丁目/２７番","139.43648","35.70826","5","7"
"神明社","185-0001","東京都国分寺市北町1-13-5","東京都/国分寺市/北町/一丁目/１３番","139.45703","35.71714","5","7"
"戸倉神社","185-0003","東京都国分寺市戸倉4-34-7","東京都/国分寺市/戸倉/四丁目/３４番","139.45424","35.70970","5","7"
"内藤神社","185-0032","東京都国分寺市日吉町","東京都/国分寺市/日吉町","139.45909","35.70200","5","5"
"八幡神社","185-0011","東京都国分寺市本多","東京都/国分寺市/本多","139.48340","35.70433","5","5"
"八幡神社","185-0012","東京都国分寺市本町","東京都/国分寺市/本町","139.48592","35.70134","5","5"
"八幡神社","185-0023","東京都国分寺市西元町","東京都/国分寺市/西元町","139.47188","35.69466","5","5"
"平安神社","185-0022","東京都国分寺市東元町1-29-20","東京都/国分寺市/東元町/一丁目/２９番","139.48529","35.69578","5","7"
"稲荷神社","186-0013","東京都国立市青柳","東京都/国立市/青柳","139.42418","35.68533","5","5"
"神明宮","186-0011","東京都国立市谷保","東京都/国立市/谷保","139.44833","35.67724","5","5"
"白山神社","186-0011","東京都国立市谷保","東京都/国立市/谷保","139.44833","35.67724","5","5"
"谷保天満宮【谷保天神】","186-0011","東京都国立市谷保5208","東京都/国立市/谷保","139.44833","35.67724","5","5"
"阿豆佐味天神社","190-0031","東京都立川市砂川町4-1-1","東京都/立川市/砂川町/四丁目/１番","139.40308","35.72405","5","7"
"阿豆佐味天神社","190-0034","東京都立川市西砂町","東京都/立川市/西砂町","139.36986","35.72735","5","5"
"愛宕神社","190-0003","東京都立川市栄町","東京都/立川市/栄町","139.42978","35.70579","5","5"
"熊野神社","190-0011","東京都立川市高松町1-17-21","東京都/立川市/高松町/一丁目/１７番","139.41808","35.70881","5","7"
"神明社","190-0034","東京都立川市西砂町","東京都/立川市/西砂町","139.36986","35.72735","5","5"
"諏訪神社【おすわさま】","190-0023","東京都立川市柴崎町1-5-15","東京都/立川市/柴崎町/一丁目/５番","139.40594","35.69520","5","7"
"第六天神社","190-0022","東京都立川市錦町5-9-21","東京都/立川市/錦町/五丁目/９番","139.41382","35.68930","5","7"
"稲荷社","196-0014","東京都昭島市田中町","東京都/昭島市/田中町","139.36308","35.71521","5","5"
"稲荷神社","196-0032","東京都昭島市郷地町","東京都/昭島市/郷地町","139.38770","35.69748","5","5"
"稲荷神社","196-0024","東京都昭島市宮沢町","東京都/昭島市/宮沢町","139.36490","35.70655","5","5"
"稲荷神社【稲荷さま】","196-0014","東京都昭島市田中町2-10-13","東京都/昭島市/田中町/二丁目/１０番","139.35474","35.70243","5","7"
"熊野神社","196-0022","東京都昭島市中神町","東京都/昭島市/中神町","139.36964","35.70331","5","5"
"駒形神社","196-0013","東京都昭島市大神町","東京都/昭島市/大神町","139.37239","35.71601","5","5"
"十二神社","196-0034","東京都昭島市玉川町","東京都/昭島市/玉川町","139.38303","35.70588","5","5"
"神明神社【神明さま】","196-0002","東京都昭島市拝島町1-19-11","東京都/昭島市/拝島町/一丁目/１９番","139.34344","35.70767","5","7"
"諏訪神社","196-0024","東京都昭島市宮沢町","東京都/昭島市/宮沢町","139.36490","35.70655","5","5"
"拝島天神社【天神さま】","196-0002","東京都昭島市拝島町2-14-7","東京都/昭島市/拝島町/二丁目/１４番","139.33891","35.71012","5","7"
"日枝神社","196-0022","東京都昭島市中神町","東京都/昭島市/中神町","139.36964","35.70331","5","5"
"日枝神社【山王社】","196-0011","東京都昭島市上川原町2-18-5","東京都/昭島市/上川原町/二丁目/１８番","139.35789","35.71049","5","7"
"日吉神社【山王社】","196-0002","東京都昭島市拝島町1-10-19","東京都/昭島市/拝島町/一丁目/１０番","139.34618","35.70589","5","7"
"福島神社","196-0031","東京都昭島市福島町","東京都/昭島市/福島町","139.38206","35.69810","5","5"
"熊野神社","208-0004","東京都武蔵村山市本町","東京都/武蔵村山市/本町","139.38556","35.75345","5","5"
"十二所神社","208-0032","東京都武蔵村山市三ツ木5-12-6","東京都/武蔵村山市/三ツ木/五丁目/１２番","139.37978","35.75999","5","7"
"神明社【お伊勢の森】","208-0003","東京都武蔵村山市中央2-125-1","東京都/武蔵村山市/中央/二丁目/１２５番地","139.39392","35.75039","5","7"
"須賀神社","208-0031","東京都武蔵村山市岸2-24-3","東京都/武蔵村山市/岸/二丁目/２４番","139.36752","35.76523","5","7"
"七所神社","208-0004","東京都武蔵村山市本町","東京都/武蔵村山市/本町","139.38556","35.75345","5","5"
"日吉神社","208-0003","東京都武蔵村山市中央","東京都/武蔵村山市/中央","139.39044","35.75263","5","5"
"八坂神社","208-0001","東京都武蔵村山市中藤","東京都/武蔵村山市/中藤","139.39861","35.75602","5","5"
"嚴島神社","207-0032","東京都東大和市蔵敷","東京都/東大和市/蔵敷","139.41888","35.75586","5","5"
"熊野神社","207-0032","東京都東大和市蔵敷","東京都/東大和市/蔵敷","139.41888","35.75586","5","5"
"小平神明宮【しんめいさま】","187-0032","東京都小平市小川町1-2573","東京都/小平市/小川町/一丁目/２５７３番地","139.44925","35.73227","5","7"
"狭山神社","207-0003","東京都東大和市狭山2-1326","東京都/東大和市/狭山/二丁目/１３２６番地","139.43785","35.75618","5","7"
"清水神社","207-0004","東京都東大和市清水3-786","東京都/東大和市/清水/三丁目","139.44296","35.75281","5","6"
"高木神社","207-0005","東京都東大和市高木2-104","東京都/東大和市/高木/二丁目/１０４番地","139.43323","35.75206","5","7"
"豊鹿嶋神社【かしまさま】","207-0033","東京都東大和市芋窪1-2067","東京都/東大和市/芋窪/一丁目/２０６７番地","139.41335","35.75732","5","7"
"八幡神社【八幡さま】","207-0031","東京都東大和市奈良橋1-256","東京都/東大和市/奈良橋/一丁目/２５６番地","139.42224","35.75642","5","7"
"日枝神社","187-0032","東京都小平市小川町1-303","東京都/小平市/小川町/一丁目","139.45003","35.72923","5","6"
"稲荷神社","187-0001","東京都小平市大沼町","東京都/小平市/大沼町","139.49431","35.73604","5","5"
"稲荷神社","187-0022","東京都小平市上水本町","東京都/小平市/上水本町","139.46255","35.71918","5","5"
"稲荷神社","187-0011","東京都小平市鈴木町","東京都/小平市/鈴木町","139.49699","35.72249","5","5"
"稲荷神社","187-0021","東京都小平市上水南町","東京都/小平市/上水南町","139.48274","35.71371","5","5"
"熊野宮【一本榎神社】","187-0042","東京都小平市仲町361","東京都/小平市/仲町/３６１番地","139.48988","35.72856","5","7"
"小平神明宮【しんめいさま】","187-0032","東京都小平市小川町1-2573","東京都/小平市/小川町/一丁目/２５７３番地","139.44925","35.73227","5","7"
"日枝神社","187-0032","東京都小平市小川町1-303","東京都/小平市/小川町/一丁目","139.45003","35.72923","5","6"
"氷川神社","187-0013","東京都小平市回田町","東京都/小平市/回田町","139.49533","35.71737","5","5"
"武蔵野神社","187-0002","東京都小平市花小金井","東京都/小平市/花小金井","139.51447","35.72772","5","5"
"秋津神社","189-0001","東京都東村山市秋津町","東京都/東村山市/秋津町","139.49368","35.77306","5","5"
"稲荷神社","189-0011","東京都東村山市恩多町3-33-1","東京都/東村山市/恩多町/三丁目/３３番","139.48145","35.75175","5","7"
"金山神社","189-0025","東京都東村山市廻田町","東京都/東村山市/廻田町","139.45383","35.75583","5","5"
"熊野神社","189-0003","東京都東村山市久米川町","東京都/東村山市/久米川町","139.48251","35.76836","5","5"
"猿田彦神社","189-0022","東京都東村山市野口町1-8-17","東京都/東村山市/野口町/一丁目/８番","139.46465","35.76302","5","7"
"諏訪神社","189-0021","東京都東村山市諏訪町1-4-3","東京都/東村山市/諏訪町/一丁目/４番","139.46552","35.76519","5","7"
"野際神社","189-0003","東京都東村山市久米川町","東京都/東村山市/久米川町","139.48251","35.76836","5","5"
"萩山八幡神社","189-0012","東京都東村山市萩山町2-21-6","東京都/東村山市/萩山町/二丁目/２１番","139.48210","35.74120","5","7"
"白山神社","189-0003","東京都東村山市久米川町","東京都/東村山市/久米川町","139.48251","35.76836","5","5"
"氷川神社","189-0001","東京都東村山市秋津町4-13-1","東京都/東村山市/秋津町/四丁目/１３番","139.48396","35.77809","5","7"
"氷川神社","189-0026","東京都東村山市多摩湖町","東京都/東村山市/多摩湖町","139.45006","35.76312","5","5"
"八坂神社【武蔵野牛頭天王】","189-0013","東京都東村山市栄町3-35-1","東京都/東村山市/栄町/三丁目/３５番","139.46599","35.75025","5","7"
"伊勢神社","204-0012","東京都清瀬市下清戸","東京都/清瀬市/下清戸","139.53732","35.78047","5","5"
"稲荷神社","204-0013","東京都清瀬市上清戸","東京都/清瀬市/上清戸","139.52336","35.77516","5","5"
"稲荷神社","204-0013","東京都清瀬市上清戸","東京都/清瀬市/上清戸","139.52336","35.77516","5","5"
"稲荷神社","204-0021","東京都清瀬市元町","東京都/清瀬市/元町","139.51872","35.77368","5","5"
"稲荷神社","204-0012","東京都清瀬市中清戸","東京都/清瀬市/中清戸","139.52773","35.77663","5","5"
"稲荷神社","204-0012","東京都清瀬市中清戸","東京都/清瀬市/中清戸","139.52773","35.77663","5","5"
"稲荷神社","204-0001","東京都清瀬市下宿","東京都/清瀬市/下宿","139.53258","35.79450","5","5"
"稲荷神社","204-0002","東京都清瀬市旭が丘","東京都/清瀬市/旭が丘","139.53490","35.79183","5","5"
"浅間神社","204-0023","東京都清瀬市竹丘","東京都/清瀬市/竹丘","139.51077","35.76718","5","5"
"白山神社","204-0001","東京都清瀬市下宿","東京都/清瀬市/下宿","139.53258","35.79450","5","5"
"八幡神社","204-0001","東京都清瀬市下宿","東京都/清瀬市/下宿","139.53258","35.79450","5","5"
"八幡神社","204-0004","東京都清瀬市野塩","東京都/清瀬市/野塩","139.50153","35.77854","5","5"
"日枝神社  水天宮","204-0012","東京都清瀬市中清戸2-616","東京都/清瀬市/中清戸/二丁目/６１６番地","139.52631","35.77999","5","7"
"氷川神社","204-0003","東京都清瀬市中里","東京都/清瀬市/中里","139.51283","35.77921","5","5"
"八雲神社","204-0011","東京都清瀬市下清戸","東京都/清瀬市/下清戸","139.53732","35.78047","5","5"
"厳島神社","203-0003","東京都東久留米市金山町","東京都/東久留米市/金山町","139.53732","35.76777","5","5"
"神明社","203-0054","東京都東久留米市中央町","東京都/東久留米市/中央町","139.52588","35.75655","5","5"
"神明社","203-0031","東京都東久留米市南町","東京都/東久留米市/南町","139.52798","35.74050","5","5"
"浅間神社","203-0012","東京都東久留米市浅間町","東京都/東久留米市/浅間町","139.53905","35.75708","5","5"
"天神社","203-0044","東京都東久留米市柳窪","東京都/東久留米市/柳窪","139.49594","35.74911","5","5"
"子ノ神社","203-0051","東京都東久留米市小山","東京都/東久留米市/小山","139.52818","35.76489","5","5"
"八幡神社","203-0042","東京都東久留米市八幡町","東京都/東久留米市/八幡町","139.51208","35.75779","5","5"
"氷川神社","203-0023","東京都東久留米市南沢3-5-8","東京都/東久留米市/南沢/三丁目/５番","139.52682","35.75323","5","7"
"氷川神社","203-0043","東京都東久留米市下里","東京都/東久留米市/下里","139.50816","35.75640","5","5"
"氷川神社","203-0004","東京都東久留米市氷川台","東京都/東久留米市/氷川台","139.53200","35.76571","5","5"
"氷川神社","203-0002","東京都東久留米市神宝町","東京都/東久留米市/神宝町","139.54388","35.76534","5","5"
"阿波洲神社","202-0023","東京都西東京市新町2-7-24","東京都/西東京市/新町/二丁目/７番","139.54225","35.71563","5","7"
"尉殿神社","202-0005","東京都西東京市住吉町1-21-1","東京都/西東京市/住吉町/一丁目/２１番","139.55019","35.74376","5","7"
"田無神社","188-0011","東京都西東京市田無町3-7-4","東京都/西東京市/田無町/三丁目/７番","139.54399","35.72970","5","7"
"天神社","202-0003","東京都西東京市北町6-7-19","東京都/西東京市/北町/六丁目/７番","139.56097","35.75396","5","7"
"東伏見稲荷神社","202-0021","東京都西東京市東伏見1-5-38","東京都/西東京市/東伏見/一丁目/５番","139.55719","35.72654","5","7"
"氷川神社","202-0021","東京都西東京市東伏見2-6-13","東京都/西東京市/東伏見/二丁目/６番","139.56320","35.72758","5","7"
"稲荷神社","180-0012","東京都武蔵野市緑町1-6-5","東京都/武蔵野市/緑町/一丁目/６番","139.56076","35.71455","5","7"
"杵築神社【杵築大社】","180-0023","東京都武蔵野市境南町2-10-11","東京都/武蔵野市/境南町/二丁目/１０番","139.54556","35.70053","5","7"
"八幡神社","180-0011","東京都武蔵野市八幡町1-1-3","東京都/武蔵野市/八幡町/一丁目/１番","139.55766","35.71418","5","7"
"武蔵野八幡宮","180-0002","東京都武蔵野市吉祥寺東町1-1-23","東京都/武蔵野市/吉祥寺東町/一丁目/１番","139.58023","35.70771","5","7"
"八幡大神社","181-0013","東京都三鷹市下連雀4-18-23","東京都/三鷹市/下連雀/四丁目/１８番","139.55997","35.69400","5","7"
"勝淵神社","181-0004","東京都三鷹市新川3-20-17","東京都/三鷹市/新川/三丁目/２０番","139.57024","35.67788","5","7"
"神明社","181-0002","東京都三鷹市牟礼2-6-12","東京都/三鷹市/牟礼/二丁目/６番","139.58383","35.68793","5","7"
"神明社","181-0012","東京都三鷹市上連雀7-26-24","東京都/三鷹市/上連雀/七丁目/２６番","139.55217","35.69391","5","7"
"天神社","181-0004","東京都三鷹市新川","東京都/三鷹市/新川","139.57620","35.66921","5","5"
"中嶋神社","181-0005","東京都三鷹市中原3-4-4","東京都/三鷹市/中原/三丁目/４番","139.56984","35.66993","5","7"
"八幡社","181-0015","東京都三鷹市大沢3-7-15","東京都/三鷹市/大沢/三丁目/７番","139.53517","35.68245","5","7"
"八幡社","181-0014","東京都三鷹市野崎1-23-1","東京都/三鷹市/野崎/一丁目/２３番","139.54921","35.68225","5","7"
"八幡神社","181-0011","東京都三鷹市井口1-9-3","東京都/三鷹市/井口/一丁目/９番","139.54968","35.69124","5","7"
"榛名神社","181-0013","東京都三鷹市下連雀1-9-7","東京都/三鷹市/下連雀/一丁目/９番","139.56966","35.69143","5","7"
"古八幡社","181-0015","東京都三鷹市大沢5-1-16","東京都/三鷹市/大沢/五丁目/１番","139.53670","35.67204","5","7"
"御嶽神社","181-0016","東京都三鷹市深大寺1-14-1","東京都/三鷹市/深大寺/一丁目/１４番","139.53830","35.69085","5","7"
"青渭神社","182-0017","東京都調布市深大寺元町5-17-10","東京都/調布市/深大寺元町/五丁目/１７番","139.55283","35.66755","5","7"
"池ノ上神社","182-0013","東京都調布市深大寺南町","東京都/調布市/深大寺南町","139.55511","35.66221","5","5"
"嚴嶋神社","182-0006","東京都調布市西つつじヶ丘1-15-8","東京都/調布市/西つつじケ丘/一丁目/１５番","139.56754","35.66098","5","7"
"稲荷神社","182-0026","東京都調布市小島町1-8-9","東京都/調布市/小島町/一丁目/８番","139.54346","35.65498","5","7"
"稲荷神社","182-0003","東京都調布市若葉町3-12-6","東京都/調布市/若葉町/三丁目/１２番","139.58395","35.65267","5","7"
"稲荷神社","182-0014","東京都調布市柴崎","東京都/調布市/柴崎","139.56297","35.65701","5","5"
"稲荷神社","182-0017","東京都調布市深大寺元町","東京都/調布市/深大寺元町","139.54485","35.66384","5","5"
"糟嶺神社","182-0004","東京都調布市入間町2-19-3","東京都/調布市/入間町/二丁目/１９番","139.58275","35.64993","5","7"
"國領神社","182-0022","東京都調布市国領町1-7-1","東京都/調布市/国領町/一丁目/７番","139.55276","35.65288","5","7"
"虎狛神社","182-0016","東京都調布市佐須町1-14-3","東京都/調布市/佐須町/一丁目/１４番","139.55032","35.66148","5","7"
"神明社","182-0017","東京都調布市深大寺元町","東京都/調布市/深大寺元町","139.54485","35.66384","5","5"
"諏訪神社","182-0012","東京都調布市深大寺東町","東京都/調布市/深大寺東町","139.55756","35.67020","5","5"
"八幡神社【上石原若宮八幡】","182-0034","東京都調布市下石原3-5-2","東京都/調布市/下石原/三丁目/５番","139.52867","35.65292","5","7"
"八幡神社【下石原八幡】","182-0033","東京都調布市富士見町2-1-11","東京都/調布市/富士見町/二丁目/１番","139.53804","35.65775","5","7"
"八幡神社","182-0001","東京都調布市緑ヶ丘2-5-5","東京都/調布市/緑ケ丘/二丁目/５番","139.58252","35.66740","5","7"
"布多天神社【五宿天神】","182-0021","東京都調布市調布ヶ丘1-8-1","東京都/調布市/調布ケ丘/一丁目/８番","139.54544","35.65699","5","7"
"道生神社","182-0036","東京都調布市飛田給3-39-20","東京都/調布市/飛田給/三丁目/３９番","139.52206","35.65491","5","7"
"八劔神社","182-0007","東京都調布市菊野台","東京都/調布市/菊野台","139.56699","35.65554","5","5"
"伊豆美神社","201-0012","東京都狛江市中和泉3-21-8","東京都/狛江市/中和泉/三丁目/２１番","139.56889","35.63566","5","7"
"菅原神社【白幡菅原神社】","201-0015","東京都狛江市猪方2-4-4","東京都/狛江市/猪方/二丁目/４番","139.58209","35.62763","5","7"
"子之神社【子之三島神社】","201-0001","東京都狛江市西野川1-17-8","東京都/狛江市/西野川/一丁目/１７番","139.57822","35.64795","5","7"
"八幡神社【岩戸八幡神社】","201-0005","東京都狛江市岩戸南2-8-2","東京都/狛江市/岩戸南/二丁目/８番","139.58846","35.63001","5","7"
"八幡神社【小足立八幡神社】","201-0001","東京都狛江市西野川2-33-1","東京都/狛江市/西野川/二丁目/３３番","139.57428","35.64754","5","7"
"日枝神社","201-0016","東京都狛江市駒井町1-6-11","東京都/狛江市/駒井町/一丁目/６番","139.58737","35.62755","5","7"
"十三社神社","100-0402","東京都新島村本村2-6-13","東京都/新島村/本村/二丁目/６番","139.25679","34.37882","5","7"
"大宮神社","100-0104","東京都大島町野増字大宮","東京都/大島町/野増","139.37723","34.71690","5","5"
"阿豆佐和気命神社","100-0301","東京都利島村1","東京都/利島村","139.28258","34.52935","5","3"
"物忌奈命神社","100-0601","東京都神津島村41","東京都/神津島村","139.13443","34.20537","5","3"
"稲根神社","100-1301","東京都御蔵島村","東京都/御蔵島村","139.59601","33.89716","5","3"
"優婆夷宝明神社","100-1401","東京都八丈島八丈町大賀郷660-1","東京都/八丈島/八丈町/大賀郷","139.76624","33.12091","5","5"
"富賀神社","100-1212","東京都三宅村阿古","東京都/三宅島/三宅村/阿古","139.49651","34.06475","5","5"
"大神山神社","100-2101","東京都小笠原村父島字東町105","東京都/小笠原村/父島","142.20961","27.07124","5","5"
